NORAD_CAT_ID,OBJECT_NAME,OBJECT_TYPE,EPOCH,MEAN_MOTION,ECCENTRICITY,INCLINATION,RA_OF_ASC_NODE,ARG_OF_PERICENTER,MEAN_ANOMALY,BSTAR,MEAN_MOTION_DOT,MEAN_MOTION_DDOT,TLE_LINE0,TLE_LINE1,TLE_LINE2,SEMIMAJOR_AXIS,PERIOD,APOGEE,PERIGEE,DECAYED
54174.0,STARLINK-5248,PAYLOAD,2024-08-17 16:40:44,15.0883855,0.0001136,53.2183,343.1787,58.8847,301.2256,4.4338e-05,4.18e-06,0.0,0 STARLINK-5248,1 54174U 22141T   24230.69496281  .00000418  00000-0  44338-4 0  9996,2 54174  53.2183 343.1787 0001136  58.8847 301.2256 15.08838550100721,6917.885,95.438,540.536,538.964,0.0
54174.0,STARLINK-5248,PAYLOAD,2024-08-18 11:45:21,15.08846339,0.0001166,53.2143,339.6122,71.9967,288.1152,7.4617e-05,9e-06,0.0,0 STARLINK-5248,1 54174U 22141T   24231.48983662  .00000900  00000-0  74617-4 0  9997,2 54174  53.2143 339.6122 0001166  71.9967 288.1152 15.08846339100847,6917.861,95.437,540.533,538.919,0.0
54174.0,STARLINK-5248,PAYLOAD,2024-08-18 14:56:08,15.0884649,0.0001688,53.2196,339.0199,72.4202,287.6975,0.00017217,2.454e-05,0.0,0 STARLINK-5248,1 54174U 22141T   24231.62231514  .00002454  00000-0  17217-3 0  9993,2 54174  53.2196 339.0199 0001688  72.4202 287.6975 15.08846490100878,6917.861,95.437,540.893,538.558,0.0
54174.0,STARLINK-5248,PAYLOAD,2024-08-19 13:11:33,15.08834909,0.0001628,53.2189,334.8567,87.1779,272.94,-8.2262e-06,-4.19e-06,0.0,0 STARLINK-5248,1 54174U 22141T   24232.54969061 -.00000419  00000-0 -82262-5 0  9995,2 54174  53.2189 334.8567 0001628  87.1779 272.9400 15.08834909101006,6917.896,95.438,540.887,538.635,0.0
54174.0,STARLINK-5248,PAYLOAD,2024-08-20 13:02:18,15.08854943,0.0001581,53.2186,330.3958,81.9011,278.216,0.00012827,1.755e-05,0.0,0 STARLINK-5248,1 54174U 22141T   24233.54327508  .00001755  00000-0  12827-3 0  9990,2 54174  53.2186 330.3958 0001581  81.9011 278.2160 15.08854943101155,6917.835,95.437,540.793,538.606,0.0
54174.0,STARLINK-5248,PAYLOAD,2024-08-21 12:53:07,15.08837072,0.0001445,53.2168,325.9342,82.3129,277.8028,9.6055e-05,1.241e-05,0.0,0 STARLINK-5248,1 54174U 22141T   24234.53688950  .00001241  00000-0  96055-4 0  9997,2 54174  53.2168 325.9342 0001445  82.3129 277.8028 15.08837072101305,6917.889,95.438,540.754,538.755,0.0
